{"fetched_at":"2026-03-29T02:12:04Z","count":15717,"tles":[{"name":"STARLINK-30282","line1":"1 57883U 23144V   26087.59756645 -.00000646  00000+0 -13950-4 0  9994","line2":"2 57883  43.0004 178.0317 0001332 272.9566  87.1133 15.27580468140539","category":"Starlink"}]}