{
  "norad_id": 57883,
  "name": "STARLINK-30282",
  "history": [
    {
      "epoch": "2026-03-28T14:20:29.740416",
      "apogee_km": 483.9616044809809,
      "perigee_km": 482.1337848783169,
      "latitude_deg": 41.44724021402194,
      "longitude_deg": 25.66637824010104,
      "semi_major_axis_km": 6861.184694679649,
      "eccentricity": 0.0001332,
      "inclination_deg": 43.0004,
      "raan_deg": 178.0317,
      "arg_perigee_deg": 272.9566,
      "mean_anomaly_deg": 87.1133,
      "mean_motion_rev_day": 15.27580468
    }
  ]
}